IRIDIUM 26              
1 24903U 97043A   25106.77440238  .00000665  00000+0  21763-3 0  9998
2 24903  86.3946 136.4253 0002134  89.9906 270.1536 14.37083310448393
IRIDIUM 22              
1 24907U 97043E   25106.79302202  .00000598  00000+0  19953-3 0  9995
2 24907  86.3956 139.9015 0002285  92.9466 267.1992 14.35905435447956
DUMMY MASS 1            
1 24925U 97048A   25106.63960558  .00000760  00000+0  81956-4 0  9991
2 24925  86.3385 163.7790 0007243  24.6756 335.4814 14.86927801496223
DUMMY MASS 2            
1 24926U 97048B   25106.59151825  .00000770  00000+0  83470-4 0  9990
2 24926  86.3388 165.3955 0008444  32.9304 327.2445 14.86680686495756
IRIDIUM 29              
1 24944U 97051A   25106.55890090  .00000733  00000+0  24358-3 0  9992
2 24944  86.4009 169.7333 0002486  96.4530 263.6950 14.36407249444420
IRIDIUM 33              
1 24946U 97051C   25106.68264696  .00000474  00000+0  16005-3 0  9997
2 24946  86.3924 168.9370 0005561 281.6090  78.4481 14.34851035443935
IRIDIUM 28              
1 24948U 97051E   25106.57221117  .00000669  00000+0  21786-3 0  9996
2 24948  86.4012 167.2815 0001859  91.0877 269.0533 14.37334684444996
IRIDIUM 36              
1 24967U 97056C   25106.82342446  .00001317  00000+0  43326-3 0  9994
2 24967  86.4033 198.7460 0002073 101.0314 259.1117 14.37553665443407
