<?xml version="1.0" encoding="UTF-8"?>
<ndm xmlns:xsi="http://www.w3.org/2001/XMLSchema-instance" xsi:noNamespaceSchemaLocation="https://sanaregistry.org/r/ndmxml_unqualified/ndmxml-2.0.0-master-2.0.xsd">
<omm id="CCSDS_OMM_VERS" version="2.0">
<header><CREATION_DATE/><ORIGINATOR/></header><body><segment><metadata><OBJECT_NAME>IRIDIUM 26</OBJECT_NAME><OBJECT_ID>1997-043A</OBJECT_ID><CENTER_NAME>EARTH</CENTER_NAME><REF_FRAME>TEME</REF_FRAME><TIME_SYSTEM>UTC</TIME_SYSTEM><MEAN_ELEMENT_THEORY>SGP4</MEAN_ELEMENT_THEORY></metadata><data><meanElements><EPOCH>2025-04-16T18:35:08.365632</EPOCH><MEAN_MOTION>14.37083310</MEAN_MOTION><ECCENTRICITY>.0002134</ECCENTRICITY><INCLINATION>86.3946</INCLINATION><RA_OF_ASC_NODE>136.4253</RA_OF_ASC_NODE><ARG_OF_PERICENTER>89.9906</ARG_OF_PERICENTER><MEAN_ANOMALY>270.1536</MEAN_ANOMALY></meanElements><tleParameters><EPHEMERIS_TYPE>0</EPHEMERIS_TYPE><CLASSIFICATION_TYPE>U</CLASSIFICATION_TYPE><NORAD_CAT_ID>24903</NORAD_CAT_ID><ELEMENT_SET_NO>999</ELEMENT_SET_NO><REV_AT_EPOCH>44839</REV_AT_EPOCH><BSTAR>.21763E-3</BSTAR><MEAN_MOTION_DOT>.665E-5</MEAN_MOTION_DOT><MEAN_MOTION_DDOT>0</MEAN_MOTION_DDOT></tleParameters></data></segment></body></omm>
<omm id="CCSDS_OMM_VERS" version="2.0">
<header><CREATION_DATE/><ORIGINATOR/></header><body><segment><metadata><OBJECT_NAME>IRIDIUM 22</OBJECT_NAME><OBJECT_ID>1997-043E</OBJECT_ID><CENTER_NAME>EARTH</CENTER_NAME><REF_FRAME>TEME</REF_FRAME><TIME_SYSTEM>UTC</TIME_SYSTEM><MEAN_ELEMENT_THEORY>SGP4</MEAN_ELEMENT_THEORY></metadata><data><meanElements><EPOCH>2025-04-16T19:01:57.102528</EPOCH><MEAN_MOTION>14.35905435</MEAN_MOTION><ECCENTRICITY>.0002285</ECCENTRICITY><INCLINATION>86.3956</INCLINATION><RA_OF_ASC_NODE>139.9015</RA_OF_ASC_NODE><ARG_OF_PERICENTER>92.9466</ARG_OF_PERICENTER><MEAN_ANOMALY>267.1992</MEAN_ANOMALY></meanElements><tleParameters><EPHEMERIS_TYPE>0</EPHEMERIS_TYPE><CLASSIFICATION_TYPE>U</CLASSIFICATION_TYPE><NORAD_CAT_ID>24907</NORAD_CAT_ID><ELEMENT_SET_NO>999</ELEMENT_SET_NO><REV_AT_EPOCH>44795</REV_AT_EPOCH><BSTAR>.19953E-3</BSTAR><MEAN_MOTION_DOT>.598E-5</MEAN_MOTION_DOT><MEAN_MOTION_DDOT>0</MEAN_MOTION_DDOT></tleParameters></data></segment></body></omm>
<omm id="CCSDS_OMM_VERS" version="2.0">
<header><CREATION_DATE/><ORIGINATOR/></header><body><segment><metadata><OBJECT_NAME>DUMMY MASS 1</OBJECT_NAME><OBJECT_ID>1997-048A</OBJECT_ID><CENTER_NAME>EARTH</CENTER_NAME><REF_FRAME>TEME</REF_FRAME><TIME_SYSTEM>UTC</TIME_SYSTEM><MEAN_ELEMENT_THEORY>SGP4</MEAN_ELEMENT_THEORY></metadata><data><meanElements><EPOCH>2025-04-16T15:21:01.922112</EPOCH><MEAN_MOTION>14.86927801</MEAN_MOTION><ECCENTRICITY>.0007243</ECCENTRICITY><INCLINATION>86.3385</INCLINATION><RA_OF_ASC_NODE>163.7790</RA_OF_ASC_NODE><ARG_OF_PERICENTER>24.6756</ARG_OF_PERICENTER><MEAN_ANOMALY>335.4814</MEAN_ANOMALY></meanElements><tleParameters><EPHEMERIS_TYPE>0</EPHEMERIS_TYPE><CLASSIFICATION_TYPE>U</CLASSIFICATION_TYPE><NORAD_CAT_ID>24925</NORAD_CAT_ID><ELEMENT_SET_NO>999</ELEMENT_SET_NO><REV_AT_EPOCH>49622</REV_AT_EPOCH><BSTAR>.81956E-4</BSTAR><MEAN_MOTION_DOT>.76E-5</MEAN_MOTION_DOT><MEAN_MOTION_DDOT>0</MEAN_MOTION_DDOT></tleParameters></data></segment></body></omm>
<omm id="CCSDS_OMM_VERS" version="2.0">
<header><CREATION_DATE/><ORIGINATOR/></header><body><segment><metadata><OBJECT_NAME>DUMMY MASS 2</OBJECT_NAME><OBJECT_ID>1997-048B</OBJECT_ID><CENTER_NAME>EARTH</CENTER_NAME><REF_FRAME>TEME</REF_FRAME><TIME_SYSTEM>UTC</TIME_SYSTEM><MEAN_ELEMENT_THEORY>SGP4</MEAN_ELEMENT_THEORY></metadata><data><meanElements><EPOCH>2025-04-16T14:11:47.176800</EPOCH><MEAN_MOTION>14.86680686</MEAN_MOTION><ECCENTRICITY>.0008444</ECCENTRICITY><INCLINATION>86.3388</INCLINATION><RA_OF_ASC_NODE>165.3955</RA_OF_ASC_NODE><ARG_OF_PERICENTER>32.9304</ARG_OF_PERICENTER><MEAN_ANOMALY>327.2445</MEAN_ANOMALY></meanElements><tleParameters><EPHEMERIS_TYPE>0</EPHEMERIS_TYPE><CLASSIFICATION_TYPE>U</CLASSIFICATION_TYPE><NORAD_CAT_ID>24926</NORAD_CAT_ID><ELEMENT_SET_NO>999</ELEMENT_SET_NO><REV_AT_EPOCH>49575</REV_AT_EPOCH><BSTAR>.8347E-4</BSTAR><MEAN_MOTION_DOT>.77E-5</MEAN_MOTION_DOT><MEAN_MOTION_DDOT>0</MEAN_MOTION_DDOT></tleParameters></data></segment></body></omm>
<omm id="CCSDS_OMM_VERS" version="2.0">
<header><CREATION_DATE/><ORIGINATOR/></header><body><segment><metadata><OBJECT_NAME>IRIDIUM 29</OBJECT_NAME><OBJECT_ID>1997-051A</OBJECT_ID><CENTER_NAME>EARTH</CENTER_NAME><REF_FRAME>TEME</REF_FRAME><TIME_SYSTEM>UTC</TIME_SYSTEM><MEAN_ELEMENT_THEORY>SGP4</MEAN_ELEMENT_THEORY></metadata><data><meanElements><EPOCH>2025-04-16T13:24:49.037760</EPOCH><MEAN_MOTION>14.36407249</MEAN_MOTION><ECCENTRICITY>.0002486</ECCENTRICITY><INCLINATION>86.4009</INCLINATION><RA_OF_ASC_NODE>169.7333</RA_OF_ASC_NODE><ARG_OF_PERICENTER>96.4530</ARG_OF_PERICENTER><MEAN_ANOMALY>263.6950</MEAN_ANOMALY></meanElements><tleParameters><EPHEMERIS_TYPE>0</EPHEMERIS_TYPE><CLASSIFICATION_TYPE>U</CLASSIFICATION_TYPE><NORAD_CAT_ID>24944</NORAD_CAT_ID><ELEMENT_SET_NO>999</ELEMENT_SET_NO><REV_AT_EPOCH>44442</REV_AT_EPOCH><BSTAR>.24358E-3</BSTAR><MEAN_MOTION_DOT>.733E-5</MEAN_MOTION_DOT><MEAN_MOTION_DDOT>0</MEAN_MOTION_DDOT></tleParameters></data></segment></body></omm>
<omm id="CCSDS_OMM_VERS" version="2.0">
<header><CREATION_DATE/><ORIGINATOR/></header><body><segment><metadata><OBJECT_NAME>IRIDIUM 33</OBJECT_NAME><OBJECT_ID>1997-051C</OBJECT_ID><CENTER_NAME>EARTH</CENTER_NAME><REF_FRAME>TEME</REF_FRAME><TIME_SYSTEM>UTC</TIME_SYSTEM><MEAN_ELEMENT_THEORY>SGP4</MEAN_ELEMENT_THEORY></metadata><data><meanElements><EPOCH>2025-04-16T16:23:00.697344</EPOCH><MEAN_MOTION>14.34851035</MEAN_MOTION><ECCENTRICITY>.0005561</ECCENTRICITY><INCLINATION>86.3924</INCLINATION><RA_OF_ASC_NODE>168.9370</RA_OF_ASC_NODE><ARG_OF_PERICENTER>281.6090</ARG_OF_PERICENTER><MEAN_ANOMALY>78.4481</MEAN_ANOMALY></meanElements><tleParameters><EPHEMERIS_TYPE>0</EPHEMERIS_TYPE><CLASSIFICATION_TYPE>U</CLASSIFICATION_TYPE><NORAD_CAT_ID>24946</NORAD_CAT_ID><ELEMENT_SET_NO>999</ELEMENT_SET_NO><REV_AT_EPOCH>44393</REV_AT_EPOCH><BSTAR>.16005E-3</BSTAR><MEAN_MOTION_DOT>.474E-5</MEAN_MOTION_DOT><MEAN_MOTION_DDOT>0</MEAN_MOTION_DDOT></tleParameters></data></segment></body></omm>
<omm id="CCSDS_OMM_VERS" version="2.0">
<header><CREATION_DATE/><ORIGINATOR/></header><body><segment><metadata><OBJECT_NAME>IRIDIUM 28</OBJECT_NAME><OBJECT_ID>1997-051E</OBJECT_ID><CENTER_NAME>EARTH</CENTER_NAME><REF_FRAME>TEME</REF_FRAME><TIME_SYSTEM>UTC</TIME_SYSTEM><MEAN_ELEMENT_THEORY>SGP4</MEAN_ELEMENT_THEORY></metadata><data><meanElements><EPOCH>2025-04-16T13:43:59.045088</EPOCH><MEAN_MOTION>14.37334684</MEAN_MOTION><ECCENTRICITY>.0001859</ECCENTRICITY><INCLINATION>86.4012</INCLINATION><RA_OF_ASC_NODE>167.2815</RA_OF_ASC_NODE><ARG_OF_PERICENTER>91.0877</ARG_OF_PERICENTER><MEAN_ANOMALY>269.0533</MEAN_ANOMALY></meanElements><tleParameters><EPHEMERIS_TYPE>0</EPHEMERIS_TYPE><CLASSIFICATION_TYPE>U</CLASSIFICATION_TYPE><NORAD_CAT_ID>24948</NORAD_CAT_ID><ELEMENT_SET_NO>999</ELEMENT_SET_NO><REV_AT_EPOCH>44499</REV_AT_EPOCH><BSTAR>.21786E-3</BSTAR><MEAN_MOTION_DOT>.669E-5</MEAN_MOTION_DOT><MEAN_MOTION_DDOT>0</MEAN_MOTION_DDOT></tleParameters></data></segment></body></omm>
<omm id="CCSDS_OMM_VERS" version="2.0">
<header><CREATION_DATE/><ORIGINATOR/></header><body><segment><metadata><OBJECT_NAME>IRIDIUM 36</OBJECT_NAME><OBJECT_ID>1997-056C</OBJECT_ID><CENTER_NAME>EARTH</CENTER_NAME><REF_FRAME>TEME</REF_FRAME><TIME_SYSTEM>UTC</TIME_SYSTEM><MEAN_ELEMENT_THEORY>SGP4</MEAN_ELEMENT_THEORY></metadata><data><meanElements><EPOCH>2025-04-16T19:45:43.873344</EPOCH><MEAN_MOTION>14.37553665</MEAN_MOTION><ECCENTRICITY>.0002073</ECCENTRICITY><INCLINATION>86.4033</INCLINATION><RA_OF_ASC_NODE>198.7460</RA_OF_ASC_NODE><ARG_OF_PERICENTER>101.0314</ARG_OF_PERICENTER><MEAN_ANOMALY>259.1117</MEAN_ANOMALY></meanElements><tleParameters><EPHEMERIS_TYPE>0</EPHEMERIS_TYPE><CLASSIFICATION_TYPE>U</CLASSIFICATION_TYPE><NORAD_CAT_ID>24967</NORAD_CAT_ID><ELEMENT_SET_NO>999</ELEMENT_SET_NO><REV_AT_EPOCH>44340</REV_AT_EPOCH><BSTAR>.43326E-3</BSTAR><MEAN_MOTION_DOT>.1317E-4</MEAN_MOTION_DOT><MEAN_MOTION_DDOT>0</MEAN_MOTION_DDOT></tleParameters></data></segment></body></omm>

</ndm>
